LoanNr_ChkDgt,Name,City,State,Zip,Bank,BankState,NAICS,ApprovalDate,ApprovalFY,Term,NoEmp,NewExist,CreateJob,RetainedJob,FranchiseCode,UrbanRural,RevLineCr,LowDoc,ChgOffDate,DisbursementDate,DisbursementGross,BalanceGross,MIS_Status,ChgOffPrinGr,GrAppv,SBA_Appv,MonthsToDefault,idNum
3508394001,NORTHWOODS PUBLICATIONS,WEST ENFIELD,ME,4493,"MERRILL BANK, A DIVISION OF",ME,511110,2000-01-03,2000,12,8,1,8,8,1,2,Y,N,NA,2000-04-30,5000,0,P I F,0,5000,2500,NA,1
3508524003,LAZY H EXPRESS,LUTHER,MT,59044,YELLOWSTONE BANK,MT,0,2000-01-03,2000,45,3,1,0,3,1,2,Y,N,NA,2000-10-31,8000,0,P I F,0,8000,4000,NA,2
3507684003,ROSEBROUGH'S WINDOW CLEANING,LAWRENCE,KS,66046,U.S. BANK NATIONAL ASSOCIATION,OH,561720,2000-01-03,2000,36,1,1,0,0,1,1,0,Y,NA,2000-02-29,10000,0,P I F,0,10000,8000,NA,3
3507554010,HI LINE GLASS & WINDOW,HAVRE,MT,59501,INDEPENDENCE BANK,MT,235920,2000-01-03,2000,60,4,1,0,0,1,2,0,Y,NA,2000-11-30,11000,0,P I F,0,11000,9900,NA,4
3507354009,COMPUTER CENTRE,HOLTS SUMMIT,MO,65043,GREAT SOUTHERN BANK,MO,541512,2000-01-03,2000,84,2,1,0,0,1,0,0,Y,NA,2001-04-30,12000,0,P I F,0,12000,9600,NA,5
3506454002,MEETING OF THE GRINDS,ALBUQUERQUE,NM,87108,MAIN BANK,NM,0,2000-01-03,2000,44,1,1,0,0,1,1,0,Y,2001-08-24,2000-03-31,12100,0,CHGOFF,8166,12100,9680,19.679671457905545,6
3507674000,POSH SALON,ROGERS,AR,72756,ARVEST BANK,AR,812112,2000-01-03,2000,36,10,1,0,0,1,1,0,Y,NA,2000-03-31,13000,0,P I F,0,13000,10400,NA,7
3507704007,ART HARBOUR INC,MAMARONECK,NY,10543,JPMORGAN CHASE BANK NATL ASSOC,IL,0,2000-01-03,2000,60,1,2,0,1,1,1,0,N,NA,2000-01-31,20000,0,P I F,0,20000,10000,NA,8
3508334005,ALLAN'S FORMAL,DORCHESTER,MA,2121,CITIZENS BANK NATL ASSOC,MA,0,2000-01-03,2000,81,2,1,0,2,1,1,Y,N,NA,2000-04-30,58859,0,P I F,0,20000,10000,NA,9
3508114009,Shawn G. Lynch,PASCOAG,RI,2919,CITIZENS BANK NATL ASSOC,RI,0,2000-01-03,2000,60,10,1,2,10,1,1,0,N,NA,2000-01-31,20600,0,P I F,0,20600,10300,NA,10
3506604010,PARK MARKET,SPRING VALLEY,CA,91977,WELLS FARGO BANK NATL ASSOC,SD,0,2000-01-03,2000,84,1,1,0,1,1,1,0,N,NA,2000-01-31,25000,0,P I F,0,25000,20000,NA,11
3506834009,"BLIZZARD'S CARRY OUT, LLC",CAIRO,WV,26337,"WESBANCO BANK, INC.",WV,0,2000-01-03,2000,60,3,2,0,0,1,2,0,Y,NA,2000-04-30,25000,0,P I F,0,25000,20000,NA,12
3507534004,SPECTRUM PRINTING,BAY CITY,MI,48708,"PNC BANK, NATIONAL ASSOCIATION",DE,323110,2000-01-03,2000,35,1,2,0,0,1,1,0,Y,2006-07-21,2000-05-31,25000,0,CHGOFF,15873,25000,20000,78.55441478439425,13
3507824008,WORLD NET 2000 INC,UNIONDALE,NY,11556,"CITIBANK, N.A.",NY,541512,2000-01-03,2000,60,3,2,3,3,1,1,Y,N,NA,2000-03-31,25610,0,P I F,0,25000,12500,NA,14
3507934006,BIONUTRIENTS,SAN LEANDRO,CA,94577,BANK OF AMERICA CALIFORNIA N.A,CA,0,2000-01-03,2000,48,2,1,0,2,1,1,0,N,NA,2000-01-31,25000,0,P I F,0,25000,12500,NA,15
3508584010,CASTLE HILL DENTAL PC,NEW YORK,NY,10473,BANCO POPULAR NORTH AMERICA,NY,621210,2000-01-03,2000,66,3,1,3,3,1,1,0,N,NA,2000-02-29,25000,0,P I F,0,25000,18750,NA,16
3509034000,DOUGLAS COTTON DMD PSC,JEFFERSONVILLE,IN,47130,"PNC BANK, NATIONAL ASSOCIATION",DE,621210,2000-01-03,2000,82,4,1,4,4,1,1,N,N,NA,2000-02-29,22250,0,P I F,0,25000,12500,NA,17
3508504008,BLAINE TECH SERVICES INC,SAN JOSE,CA,95112,WELLS FARGO BANK NATL ASSOC,CA,0,2000-01-03,2000,60,39,1,0,39,1,1,0,N,NA,2000-01-31,25900,0,P I F,0,25900,12950,NA,18
3506534002,KROTZ SPRINGS THRIFTY WAY PHAR,KROTZ SPRINGS,LA,70750,AMERICAN BANK & TRUST COMPANY,LA,446110,2000-01-03,2000,84,5,2,0,0,1,1,0,Y,NA,2000-09-30,29000,0,P I F,0,29000,23200,NA,19
3506614002,"VIDEO COUNTRY, INC",ELROY,WI,53929,ROYAL BANK,WI,451220,2000-01-03,2000,120,4,1,0,0,1,2,0,Y,NA,2000-01-31,30000,0,P I F,0,30000,24000,NA,20
3507734005,JIMMY'S MARKET INC,NEW YORK,NY,11222,BNB HANA BANK NATL ASSOC,NJ,445230,2000-01-03,2000,84,3,1,3,0,1,1,0,N,NA,2000-05-31,30000,0,P I F,0,30000,24000,NA,21
3508074010,LECHUGA TRUCKING,CACTUS,TX,79013,BANK OF AMERICA NATL ASSOC,NC,0,2000-01-03,2000,60,4,2,2,2,1,1,0,N,NA,2000-01-31,30000,0,P I F,0,30000,15000,NA,22
3508244002,CELIA'S CORNER RESTAURANT,BROOKLYN (BOROUGH OF NEW YORK),NY,11212,JPMORGAN CHASE BANK NATL ASSOC,IL,0,2000-01-03,2000,60,5,2,0,5,1,1,0,N,NA,2000-01-31,30000,0,P I F,0,30000,15000,NA,23
3508484004,TRAVELHOST TRAVEL AGENCY,UNIONVILLE,CT,6085,BANK OF AMERICA NATL ASSOC,RI,561510,2000-01-03,2000,48,2,1,0,2,1,1,Y,N,NA,2000-01-31,39418,0,P I F,0,30000,15000,NA,24
3506314006,"SADDLERY & SUCH, LLC.",PURCELLVILLE,VA,20132,"PNC BANK, NATIONAL ASSOCIATION",VA,451110,2000-01-03,2000,83,1,2,0,0,1,2,0,Y,NA,2000-08-31,35000,0,P I F,0,35000,28000,NA,25
3508964006,A & A TRUCKING,EUREKA,CA,95501,UMPQUA BANK,CA,0,2000-01-03,2000,84,1,1,1,1,1,2,0,N,NA,2000-02-29,35000,0,P I F,0,35000,17500,NA,26
3509014005,SMITTY'S CARRYOUT,HARROD (RR NAME HARRODS),OH,45850,JPMORGAN CHASE BANK NATL ASSOC,IL,0,2000-01-03,2000,180,1,1,1,2,1,1,0,N,NA,2000-02-29,36900,0,P I F,0,36900,18450,NA,27
3506664006,WINNIE'S MESSAGE CENTER,DICKINSON,ND,58601,KIRKWOOD BANK AND TRUST CO,ND,0,2000-01-03,2000,84,4,1,0,0,1,1,0,Y,NA,2000-01-31,37500,0,P I F,0,37500,30000,NA,28
3508784000,B & K LANDSCAPE & LAWN SERVICE,SIOUX CENTER,IA,51250,AMERICAN STATE BANK,IA,561730,2000-01-03,2000,84,3,1,0,3,1,1,0,N,NA,2000-01-31,39000,0,P I F,0,39000,19500,NA,29
3508274000,PRIDE DISTRIBUTION,STOCKTON,CA,95208,WELLS FARGO BANK NATL ASSOC,CA,0,2000-01-03,2000,120,2,1,5,2,1,1,0,N,NA,2000-02-29,44000,0,P I F,0,44000,22000,NA,30
3508924005,JOE BERTIN CARPET & UPHOLSTERY,SHARPSVILLE,PA,16150,FIRST NATL BK OF PENNSYLVANIA,PA,561740,2000-01-03,2000,60,6,1,6,0,43573,1,0,N,NA,2000-01-31,45000,0,P I F,0,45000,22500,NA,31
3506494003,BUETTNER RENTALS,MINOT,ND,58701,BREMER BANK NATL ASSOC,ND,812310,2000-01-03,2000,60,4,2,0,0,1,1,0,Y,NA,2000-01-31,50000,0,P I F,0,50000,40000,NA,32
3506844001,REDDING AND FRIENDS ADVANCED H,STILLWATER,OK,74075,HOME NATIONAL BANK,OK,812112,2000-01-03,2000,53,12,2,0,0,1,1,N,N,2002-04-29,2000-01-31,50000,0,CHGOFF,27760,50000,40000,27.82751540041068,33
3507244000,BODY SHOP GYM,STAMFORD,NY,12167,NATL BK OF DELAWARE COUNTY WA,NY,0,2000-01-03,2000,72,1,1,0,0,1,2,N,N,NA,2000-02-29,50000,0,P I F,0,50000,40000,NA,34
3508134004,XDIRECT INC,LINCOLN,NE,68502,UNION BANK AND TRUST COMPANY,NE,0,2000-01-03,2000,10,1,2,1,1,1,1,Y,N,2003-05-20,2000-01-31,49912,0,CHGOFF,14724,50000,25000,40.50924024640657,35
3508404002,"Crisis Care Network, Inc.",DORR,MI,49323,FIFTH THIRD BANK,OH,0,2000-01-03,2000,12,4,1,0,0,1,2,T,N,NA,2000-02-29,50000,0,P I F,0,50000,25000,NA,36
3508494007,STEPHEN LEONE ASPHALT & LANDSC,ROCHESTER,NY,14624,MANUFACTURERS & TRADERS TR CO,NY,561730,2000-01-03,2000,80,1,2,0,1,1,1,Y,N,NA,2000-06-30,74000,0,P I F,0,50000,25000,NA,37
3508834002,CAPACCIO ENVIRONMENTAL ENGINEE,MIDDLESEX (MIDDLESEX VILLAGE),MA,1776,"FLAGSHIP BANK, A DIVISION OF",MA,541330,2000-01-03,2000,48,15,1,2,15,1,1,0,N,NA,2000-03-31,50000,0,P I F,0,50000,40000,NA,38
3508864000,THE HEALTH OASIS AND ANTI-AGIN,SCOTTSDALE,AZ,85258,CALIFORNIA BANK & TRUST,CA,621111,2000-01-03,2000,60,5,1,0,5,1,1,0,N,NA,2000-03-31,50000,0,P I F,0,50000,25000,NA,39
3509174007,ACE FUSING CO,LOS ANGELES,CA,90023,BBCN BANK,CA,0,2000-01-03,2000,84,5,1,5,5,1,1,0,N,NA,2000-01-31,50000,0,P I F,0,50000,40000,NA,40
3509244004,LABOR SAVERS INC,MONROE,NC,28110,WELLS FARGO BANK NATL ASSOC,NC,322211,2000-01-03,2000,23,14,1,5,19,1,1,Y,N,NA,2000-01-31,80000,0,P I F,0,50000,25000,NA,41
3507594000,ABNER BELL'S COFFEE HOUSE,STORM LAKE,IA,50588,HERITAGE BANK NATL ASSOC,IA,0,2000-01-03,2000,216,9,1,0,0,1,2,N,N,NA,2000-01-31,50800,0,P I F,0,50800,40640,NA,42
3506594009,"WOLF PEST CONTROL SERVICES,INC",NEW BRAUNFELS,TX,78130,BROADWAY NATIONAL BANK,TX,561710,2000-01-03,2000,60,12,2,0,0,1,1,0,Y,NA,2000-01-31,55000,0,P I F,0,55000,44000,NA,43
3507774006,I/O COMPUTERS,LEWISVILLE,TX,75067,FIRST UNITED BK & TR CO,TX,443120,2000-01-03,2000,21,5,2,0,0,1,1,0,Y,2009-03-13,2000-01-31,55000,0,CHGOFF,40851,55000,44000,110.29158110882958,44
3508604003,ME COMPANY,FORT WORTH,TX,76109,JPMORGAN CHASE BANK NATL ASSOC,IL,0,2000-01-03,2000,60,4,1,0,0,79105,1,0,N,NA,2000-01-31,55000,0,P I F,0,55000,27500,NA,45
3506814003,"BLIZZARD'S CARRY OUT, LLC",CAIRO,WV,26337,"WESBANCO BANK, INC.",WV,0,2000-01-03,2000,120,3,2,0,0,1,2,0,Y,NA,2000-03-31,56000,0,P I F,0,56000,44800,NA,46
3506744006,"BASHIR U. SHAIKH, MD PA",LAKE WORTH,FL,33467,BANK OF AMERICA NATL ASSOC,NC,0,2000-01-03,2000,84,3,1,0,0,1,1,0,Y,NA,2000-03-31,58000,0,P I F,0,58000,46400,NA,47
3508304007,BUCKINGHAM EQUINE INC,RAYMOND,MN,56282,HERITAGE BANK NATL ASSOC,MN,541940,2000-01-03,2000,120,6,2,0,6,1,2,Y,N,NA,2000-01-31,146687,0,P I F,0,60000,30000,NA,48
3508414005,"Crisis Care Network, Inc.",KENT CITY,MI,49330,FIFTH THIRD BANK,OH,0,2000-01-03,2000,60,4,1,4,4,1,1,0,N,NA,2000-01-31,60000,0,P I F,0,60000,30000,NA,49
3508684005,TIGERWALL ALTERNATE WALL SYSTE,SAN BERNARDINO,CA,91730,WELLS FARGO BANK NATL ASSOC,CA,0,2000-01-03,2000,60,5,1,4,5,1,1,Y,N,NA,2000-01-31,112646,0,P I F,0,60000,30000,NA,50
3506714008,MAURICIO MAGDALENO,EL CAJON,CA,92021,BANK OF THE WEST,CA,0,2000-01-03,2000,60,1,1,0,0,1,1,0,Y,NA,2000-01-31,62000,0,P I F,0,62000,49600,NA,51
3506184004,"FERGBERG, INC",INDIANAPOLIS,IN,46227,BMO HARRIS BK NATL ASSOC,IL,0,2000-01-03,2000,84,6,1,0,0,1,1,0,Y,NA,2000-04-30,64000,0,P I F,0,64000,51200,NA,52
3508174005,LE CACHE VARIETY SHOP INC,MINNEAPOLIS,MN,55402,ASSOCIATED BANK NATL ASSOC,MN,452990,2000-01-03,2000,60,8,1,0,8,1,1,0,N,NA,2000-02-29,68000,0,P I F,0,68000,54400,NA,53
3508644004,LUCKY 5,ANTIOCH,CA,94509,BBCN BANK,CA,448140,2000-01-03,2000,84,3,1,0,3,1,1,0,N,NA,2000-01-31,75000,0,P I F,0,75000,60000,NA,54
3504724007,"CATHARINE A. FOSTER, CNP,PC",LAS CRUCES,NM,88001,CITIZENS BANK OF LAS CRUCES,NM,0,2000-01-03,2000,126,4,2,0,0,1,1,N,N,NA,2000-05-31,80000,0,P I F,0,80000,64000,NA,55
3507494005,SILVER SCREEN VIDEO,WESTPORT,MA,2790,BANKFIVE,MA,451220,2000-01-03,2000,84,6,2,0,0,1,2,0,Y,NA,2000-02-29,80000,0,P I F,0,80000,64000,NA,56
3506754009,"R & D SERVICE, INC.",NEW CASTLE,DE,19712,WILMINGTON TRUST COMPANY,DE,811219,2000-01-03,2000,60,4,1,0,0,1,1,0,Y,NA,2000-02-29,85000,0,P I F,0,85000,68000,NA,57
3508024006,LEMONGRASS ON UNIVERSITY CORPO,NEW YORK,NY,10003,BANK OF AMERICA NATL ASSOC,RI,722110,2000-01-03,2000,48,12,1,0,12,1,1,0,N,NA,2000-02-29,85100,0,P I F,0,85100,42550,NA,58
3507984010,CENTRAL COAST TRANSPORTATION,SANTA MARIA,CA,93458,BANK OF AMERICA CALIFORNIA N.A,CA,0,2000-01-03,2000,60,3,1,2,3,1,1,Y,N,NA,2000-01-31,87500,0,P I F,0,87500,43750,NA,59
3509164004,CLASSIC TANS,PORT CHARLOTTE,FL,33952,CHARLOTTE STATE BANK & TRUST,FL,0,2000-01-03,2000,108,2,2,2,2,1,1,0,N,NA,2000-01-31,90000,0,P I F,0,90000,72000,NA,60
3508544009,HOSIERY PLUS,LAKEWOOD,NJ,8701,FULTON BANK OF NEW JERSEY,NJ,0,2000-01-03,2000,84,2,1,2,2,1,1,0,N,NA,2000-02-29,92000,0,P I F,0,92000,73600,NA,61
3506304003,JAMESTOWN LIBERTY LAUNDROMAT,JAMESTOWN,PA,16134,"PNC BANK, NATIONAL ASSOCIATION",PA,812310,2000-01-03,2000,93,2,2,0,0,1,1,0,Y,NA,2000-06-30,93500,0,P I F,0,93500,74800,NA,62
3507914000,MAIL BOXES ETC,CARROLLTON,TX,75007,COMPASS BANK,AL,488991,2000-01-03,2000,87,2,2,2,2,50564,1,0,N,NA,2000-01-31,98600,0,P I F,0,98600,73950,NA,63
3506774004,"CRAIG FIRE PROTECTION, INC.",LAKE HAVASU CITY,AZ,86403,MOHAVE STATE BANK,AZ,0,2000-01-03,2000,84,9,2,0,0,1,1,0,Y,NA,2001-01-31,100000,0,P I F,0,100000,80000,NA,64
3508064007,CODA INTERNATIONAL TOURS INC,NEW YORK,NY,10011,BANK OF AMERICA NATL ASSOC,RI,561520,2000-01-03,2000,84,2,2,2,2,1,1,0,N,NA,2000-01-31,100000,0,P I F,0,100000,50000,NA,65
3508094005,HOUSLEY DISTRIBUTING INC,SILVER CITY,NM,88062,BANK OF AMERICA NATL ASSOC,NC,422720,2000-01-03,2000,60,18,1,0,18,81550,1,Y,N,NA,2000-01-31,199999,0,P I F,0,100000,50000,NA,66
3508164002,OMNI DESIGN GROUP INC,SAN LUIS OBISPO,CA,93401,MUFG UNION BANK NATL ASSOC,CA,541330,2000-01-03,2000,84,20,1,15,20,1,1,0,N,NA,2000-01-31,100000,0,P I F,0,100000,80000,NA,67
3508844005,SIERRA HEIGHTS MARKETING INC,PORTERVILLE,CA,93257,BANK OF THE SIERRA,CA,422480,2000-01-03,2000,15,2,1,2,2,1,2,Y,N,NA,2000-01-31,100000,0,P I F,0,100000,50000,NA,68
3508914002,INSWORLD COM INC,AVON (AVON CENTER),CT,6001,BANK OF AMERICA NATL ASSOC,RI,0,2000-01-03,2000,12,4,2,0,4,1,1,Y,N,NA,2000-03-31,100000,0,P I F,0,100000,50000,NA,69
3507524001,LD SERVICES,VICTORIA,TX,77901,WELLS FARGO BANK NATL ASSOC,SD,0,2000-01-03,2000,23,42,1,0,0,1,1,0,Y,2006-04-22,2000-04-30,105900,0,CHGOFF,51630,105900,79425,75.59753593429159,70
3508614006,THE LAUNDRY ROOM,LOVES PARK,IL,61111,BMO HARRIS BK NATL ASSOC,IL,812310,2000-01-03,2000,84,2,2,2,5,1,1,0,N,NA,2000-01-31,80000,0,P I F,0,108000,54000,NA,71
3508124001,KM MANAGEMENT INC,SPARTANBURG,SC,29307,WELLS FARGO BANK NATL ASSOC,NC,0,2000-01-03,2000,87,12,2,0,12,1,1,0,N,NA,2000-01-31,112500,0,P I F,0,112500,56250,NA,72
3507194009,MAIL BOXES ETC,FRISCO,TX,75035,COMPASS BANK,TX,0,2000-01-03,2000,84,3,2,3,3,50564,1,0,N,NA,2000-01-31,120000,0,P I F,0,120000,90000,NA,73
3508474001,"JASPER MOON, INC",FORT WORTH,TX,76133,BANCO POPULAR NORTH AMERICA,TX,0,2000-01-03,2000,24,1,2,1,1,1,1,0,N,2006-05-16,2000-09-30,99491,0,CHGOFF,77964,120000,90000,76.38603696098562,74
3507444001,"CARTOGRAPHIC ASSOCIATES, INC.",LITTLETON,NH,3561,PASSUMPSIC SAVINGS BANK,NH,514210,2000-01-03,2000,60,20,1,0,0,1,2,0,Y,NA,2000-10-31,125000,0,P I F,0,125000,93750,NA,75
3507744008,"NETGINEER DATA SYSTEMS, INC.",ROUND ROCK,TX,78664,JPMORGAN CHASE BANK NATL ASSOC,IL,0,2000-01-03,2000,84,5,1,0,0,1,1,0,Y,NA,2000-02-29,125000,0,P I F,0,125000,93750,NA,76
3508354000,AMERICAN CEDAR INC,HOT SPRINGS (HOT SPRINGS NATIO,AR,71901,SOUTHERN BANCORP BANK,AR,321999,2000-01-03,2000,48,40,1,0,0,1,2,0,N,NA,2000-02-29,130000,0,P I F,0,130000,97500,NA,77
3508004000,A-1 BODY & FRAME,GAHANNA,OH,43230,THE HUNTINGTON NATIONAL BANK,OH,811121,2000-01-03,2000,300,11,1,0,11,1,1,0,N,NA,2000-01-31,131000,0,P I F,0,131000,98250,NA,78
3508324002,GRAND CENTRAL COLLISION REPAIR,BURLINGTON,WA,98233,U.S. BANK NATIONAL ASSOCIATION,OH,811121,2000-01-03,2000,84,2,2,5,7,1,1,0,N,NA,2000-03-31,134300,0,P I F,0,134300,100725,NA,79
3506434007,SMYTH'S GARDENVILLE GREENHOUSE,TACOMA,WA,98424,KITSAP BANK,WA,0,2000-01-03,2000,84,15,1,0,0,1,1,0,Y,NA,2000-05-31,135000,0,P I F,0,135000,101250,NA,80
3508454006,HOTSY EQUIPMENT,SAN DIEGO,CA,92110,WELLS FARGO BANK NATL ASSOC,CA,0,2000-01-03,2000,120,10,1,10,10,1,1,0,N,NA,2000-02-29,136000,0,P I F,0,136000,102000,NA,81
3509074001,EL PESCADOR TO GO,BELLFLOWER,CA,90706,WELLS FARGO BANK NATL ASSOC,CA,722110,2000-01-03,2000,300,5,1,5,5,1,1,0,N,NA,2000-01-31,138000,0,P I F,0,138000,103500,NA,82
3507604001,R & L FRAMING LLC,BOISE,ID,83703,IDAHO BANKING COMPANY,ID,235510,2000-01-03,2000,120,16,2,0,0,1,1,0,Y,NA,2000-01-31,140000,0,P I F,0,140000,105000,NA,83
3508654007,VAN BOS ELECTRIC INC,ROSEVILLE,CA,95678,GE CAP. SMALL BUS. FINAN CORP,TX,235310,2000-01-03,2000,300,27,1,0,27,1,1,0,N,NA,2000-01-31,148000,0,P I F,0,148000,111000,NA,84
3506284010,"COOL POOCH PRODUCTS, INC.",CHICAGO,IL,60622,"PNC BANK, NATIONAL ASSOCIATION",IL,0,2000-01-03,2000,11,6,2,0,0,1,1,0,Y,2006-04-20,2000-02-29,150000,0,CHGOFF,126108,150000,112500,75.53182751540041,85
3507074008,ROGER E ARREDONDO DDS PC,SAN ANTONIO,TX,78229,WELLS FARGO BANK NATL ASSOC,SD,621210,2000-01-03,2000,84,3,1,5,3,1,1,T,N,NA,2000-03-31,227189,0,P I F,0,150000,75000,NA,86
3508054004,TICKET CITY INC,ALLSTON,MA,2134,SANTANDER BANK NATL ASSOC,MA,0,2000-01-03,2000,119,5,2,0,5,1,1,0,N,NA,2000-02-29,150000,0,P I F,0,150000,75000,NA,87
3508384009,CAPACCIO ENVIRONMENTAL ENGINEE,WAYLAND,MA,91778,"FLAGSHIP BANK, A DIVISION OF",MA,541330,2000-01-03,2000,12,15,1,2,0,1,1,Y,N,NA,2000-03-31,329991,0,P I F,0,150000,75000,NA,88
3508814007,PIPHER REIN ECHNICAL SERVICES,MOUNT VERNON,NY,10552,KEYBANK NATIONAL ASSOCIATION,NY,0,2000-01-03,2000,60,9,1,2,0,1,1,Y,N,NA,2000-02-29,150000,0,P I F,0,150000,75000,NA,89
3508974009,PROGRESSIVE CAR WASH SYSTEMS I,DALLAS,TX,75220,WELLS FARGO BANK NATL ASSOC,SD,0,2000-01-03,2000,84,8,1,8,8,1,1,0,N,NA,2000-02-29,150000,0,P I F,0,150000,112500,NA,90
3509024008,ILLINOIS PUMP EQUIPMENT,SKOKIE (NILES CENTER),IL,60077,U.S. BANK NATIONAL ASSOCIATION,OH,333911,2000-01-03,2000,84,2,1,1,2,1,1,0,N,NA,2000-02-29,150000,0,P I F,0,150000,75000,NA,91
3509114000,HOME MASTERS INC,JASPER,AL,35504,REGIONS BANK,AL,233210,2000-01-03,2000,120,2,1,0,2,1,1,0,N,NA,2000-03-31,150000,0,P I F,0,150000,112500,NA,92
3509124003,POWER PILATES INC,NEW YORK,NY,10011,"CITIBANK, N.A.",NY,0,2000-01-03,2000,60,20,1,15,20,1,1,0,N,NA,2000-07-31,150000,0,P I F,0,150000,75000,NA,93
3509134006,WILLIAM F HILL PA,GREENVILLE,NC,27858,"PNC BANK, NATIONAL ASSOCIATION",DE,541110,2000-01-03,2000,106,4,2,0,4,1,1,N,N,NA,2001-03-31,162232,0,P I F,0,150000,75000,NA,94
3509144009,SLR CONTRACTING & SERVICE CO,BUFFALO,NY,14211,MANUFACTURERS & TRADERS TR CO,NY,235110,2000-01-03,2000,66,16,1,0,16,1,1,Y,N,NA,2001-06-30,295530,0,P I F,0,150000,75000,NA,95
3509194002,EYES OF THE WORLD LLC,ROLLA,MO,65401,REGIONS BANK,TN,0,2000-01-03,2000,84,14,1,2,14,1,2,Y,N,NA,2000-01-31,162900,0,P I F,0,150000,75000,NA,96
3509264010,AUDIO VISUAL MANAGEMENT SOLUTI,SEATTLE,WA,98115,JPMORGAN CHASE BANK NATL ASSOC,OR,0,2000-01-03,2000,60,3,1,3,3,1,1,0,N,NA,2000-01-31,150000,0,P I F,0,150000,112500,NA,97
3508104006,RANDY'S WELDING,HALSTAD,MN,56548,STEARNS BK NATL ASSOC,MN,811310,2000-01-03,2000,115,3,1,0,3,1,2,0,N,2006-06-20,2000-01-31,152500,0,CHGOFF,64785,152500,114375,77.53593429158111,98
3508734007,BOE SERVICES INC,SEGUIN,TX,78155,FIRST COMM. BANK NATL ASSOC,TX,235310,2000-01-03,2000,163,14,1,4,14,1,2,0,N,2008-08-11,2000-01-31,155000,0,CHGOFF,94015,155000,116250,103.26078028747433,99
3508754002,BODY SHOP GYM INC,MARLTON,NJ,8053,"COMMERCE BANK, A DIVISION OF",PA,713940,2000-01-03,2000,84,2,1,10,2,1,1,0,N,NA,2000-04-30,160000,0,P I F,0,160000,120000,NA,100
3506684001,BOWIEN MECHANICAL CONTRACTORS,GEORGETOWN,TX,78627,FIRST TEXAS BANK,TX,0,2000-01-03,2000,45,5,1,0,0,1,2,N,N,2006-11-20,2000-01-31,175000,0,CHGOFF,80999,175000,131250,82.56262833675565,101
3509094007,AIRCELL COMMUNICATIONS,SAN DIEGO,CA,92105,WELLS FARGO BANK NATL ASSOC,CA,0,2000-01-03,2000,180,7,2,7,7,1,1,0,N,NA,2000-01-31,188000,0,P I F,0,188000,141000,NA,102
3508314010,STREET EAGLES OF AUSTIN,SAN MARCOS,TX,78666,WELLS FARGO BANK NATL ASSOC,SD,532111,2000-01-03,2000,120,1,1,4,0,78331,1,0,N,NA,2000-02-29,190000,0,P I F,0,190000,142500,NA,103
3509004002,SCENIC CITY ENTERPRISES LLC,HIXSON (RR NAME HIXSON),TN,37343,FIRST VOLUNTEER BANK,TN,812320,2000-01-03,2000,23,14,2,0,0,1,1,0,N,2006-10-30,2000-05-31,195000,0,CHGOFF,85677,195000,146250,81.87268993839835,104
3507754000,USA COIN OP LAUNDRY MAT,SAN JOSE,CA,95126,WELLS FARGO BANK NATL ASSOC,CA,812310,2000-01-03,2000,120,3,1,0,3,1,1,0,N,NA,2000-01-31,200000,0,P I F,0,200000,150000,NA,105
3507234008,"NATASHA INVESTMENTS, INC",FAYETTEVILLE,GA,30214,GEORGIA CERT. DEVEL CORP,GA,0,2000-01-03,2000,240,4,2,4,4,1,1,N,N,NA,2000-05-17,222000,0,P I F,0,222000,222000,NA,106
3507064005,SHAREE'S BEAUTY SUPPLY,DALLAS,TX,75216,EAST WEST BANK,TX,452990,2000-01-03,2000,60,4,1,0,4,1,1,0,N,NA,2000-01-31,225000,0,P I F,0,225000,168750,NA,107
3507614004,SACRAMENTO AESTHETIC SURGERY,SACRAMENTO,CA,95819,UMPQUA BANK,CA,0,2000-01-03,2000,114,6,1,0,0,1,1,N,N,NA,2000-01-31,230400,0,P I F,0,230400,172800,NA,108
3509044003,NAPLES AUTO REPAIR ASSN INC.,NAPLES,FL,34109,"READYCAP LENDING, LLC",CA,811111,2000-01-03,2000,120,4,1,4,4,1,1,0,N,NA,2000-01-31,230400,0,P I F,0,230400,172800,NA,109
3507434009,"LIVE WELL, INC.",LITHONIA,GA,30058,COMMUNITY W. BANK NATL ASSOC,CA,0,2000-01-03,2000,69,3,1,0,0,1,1,N,N,2007-02-28,2000-01-31,245000,0,CHGOFF,159398,245000,183750,85.84804928131418,110
3506804000,BENEFIT BROKERAGE SERVICE,MILPITAS,CA,95035,WELLS FARGO BANK NATL ASSOC,CA,524210,2000-01-03,2000,84,3,1,0,0,1,1,N,N,NA,2000-03-31,250000,0,P I F,0,250000,187500,NA,111
3508204001,LAUNDROMANIA,DAYTON,OH,45403,THE HUNTINGTON NATIONAL BANK,OH,812310,2000-01-03,2000,180,4,1,0,4,1,1,0,N,NA,2000-01-31,255500,0,P I F,0,255500,191625,NA,112
3506344004,COLLECTOR WELLS INTERNATIONAL,COLUMBUS,OH,43229,COMMUNITY CAP. DEVEL CORP,OH,235810,2000-01-03,2000,240,35,1,10,25,1,1,N,N,NA,2000-09-13,280000,0,P I F,0,280000,280000,NA,113
3508994004,IDLE WILD RESORT,LAND O'LAKES,WI,54540,U.S. BANK NATIONAL ASSOCIATION,OH,721110,2000-01-03,2000,240,2,1,0,2,1,1,0,N,NA,2000-05-31,280000,0,P I F,0,280000,210000,NA,114
3508804004,"PROSOURCE ENGINE COMPONENTS,LL",LOS ANGELES,CA,90058,MUFG UNION BANK NATL ASSOC,CA,0,2000-01-03,2000,84,5,2,0,0,1,1,N,N,NA,2000-10-31,292000,0,P I F,0,292000,219000,NA,115
3506634008,"CIBERNET U.S.A, INC.",EL PASO,TX,79925,COMPASS BANK,TX,531190,2000-01-03,2000,240,7,2,3,7,1,0,N,C,NA,2000-01-31,310000,0,P I F,0,310000,232500,NA,116
3508294006,C & K VARIETY,HERMON,ME,4402,"MERRILL BANK, A DIVISION OF",ME,445110,2000-01-03,2000,240,10,1,6,10,1,2,0,N,NA,2000-03-31,315000,0,P I F,0,315000,236250,NA,117
3508704009,KEYSTONE FURNITURE,LOS ANGELES,CA,90015,SMALL BUS. LOAN SOURCE LLC,TX,442110,2000-01-03,2000,300,1,1,0,1,1,1,0,N,NA,2000-02-29,315000,0,P I F,0,315000,236250,NA,118
3506974005,HATCHER FEEDS,MACON,GA,31202,GEORGIA SMALL BUS. LENDER INC.,GA,311119,2000-01-03,2000,240,6,2,6,6,1,1,N,N,NA,2001-05-16,319000,0,P I F,0,325000,325000,NA,119
3509204003,THE PIT,KILL DEVIL HILLS,NC,27948,"BUSINESS LOAN CENTER, LLC",SC,451110,2000-01-03,2000,300,1,1,7,1,1,1,0,N,NA,2000-04-30,340000,0,P I F,0,340000,255000,NA,120
3508574007,PINE MOUNTAIN GROUP,GROVELAND,CA,95321,WELLS FARGO BANK NATL ASSOC,CA,541511,2000-01-03,2000,98,17,1,3,20,1,2,0,N,NA,2000-01-31,350000,0,P I F,0,350000,262500,NA,121
3509184010,PROGRESSIVE SOLUTIONS CORPORAT,NEEDHAM,MA,2494,BANK OF AMERICA NATL ASSOC,RI,541512,2000-01-03,2000,36,13,1,3,13,1,1,0,N,NA,2000-02-29,300000,0,P I F,0,350000,262500,NA,122
3509104008,THE GODDARD SCHOOL OF SPOTSWOO,SPOTSWOOD,NJ,8884,UNITY BANK,NJ,624410,2000-01-03,2000,120,27,1,0,27,1,1,0,N,NA,2000-01-31,400000,0,P I F,0,400000,300000,NA,123
3506704005,KING AND STORY LIQUOR,SAN JOSE,CA,95122,SUMMIT BANK,CA,445310,2000-01-03,2000,120,2,1,0,0,1,1,N,N,NA,2000-01-31,420000,0,P I F,0,420000,315000,NA,124
3508374006,SAMMAMISH ACE HARDWARE LLC,REDMOND,WA,98052,BANK OF AMERICA NATL ASSOC,NC,444130,2000-01-03,2000,84,12,1,1,13,1,1,0,N,NA,2000-07-31,420000,0,P I F,0,420000,315000,NA,125
3508744010,HERITAGE NURSERIES LTD,FRISCO,TX,75035,LEGACYTEXAS BANK,TX,0,2000-01-03,2000,240,2,1,0,2,1,1,0,N,NA,2000-07-31,420000,0,P I F,0,420000,315000,NA,126
3507894007,COAST CATV SUPPLY INC THE SBC,CORONA,CA,91720,MUFG UNION BANK NATL ASSOC,CA,421690,2000-01-03,2000,300,12,1,0,12,1,1,0,N,NA,2000-01-31,423900,0,P I F,0,423900,317925,NA,127
3508564004,MASS ENTERPRISES INC,ARLINGTON,TX,76002,WOODHAVEN NATIONAL BANK,TX,0,2000-01-03,2000,240,6,1,6,6,1,1,0,N,NA,2000-02-29,427500,0,P I F,0,427500,320625,NA,128
3508434000,FOUR MUGS INC,SUNRISE,FL,33326,BANCO POPULAR NORTH AMERICA,NY,0,2000-01-03,2000,120,3,2,22,3,25650,1,0,N,NA,2000-03-31,458500,0,P I F,0,458500,343875,NA,129
3507924003,SUNBELT POOLS,ATLANTA,GA,30340,WELLS FARGO BANK NATL ASSOC,SD,0,2000-01-03,2000,84,12,2,3,12,1,1,0,N,NA,2000-03-31,468000,0,P I F,0,468000,351000,NA,130
3509154001,PACIFIC WESTLINE INC,ANAHEIM,CA,92802,CDC SMALL BUS. FINAN CORP,CA,0,2000-01-03,2000,240,40,1,16,0,1,1,0,N,NA,2002-03-13,494000,0,P I F,0,494000,494000,NA,131
3506554008,DIAMOND CONSTRUCTION,HELENA,MT,59601,MOUNTAIN W. BANK NATL ASSOC,MT,233210,2000-01-03,2000,12,80,1,0,0,1,2,Y,N,NA,2000-01-31,500000,0,P I F,0,500000,365000,NA,132
3509084004,CLASSIC OAK OUTLET,AUSTIN,TX,78758,COMPASS BANK,AL,442110,2000-01-03,2000,147,34,1,2,34,1,1,0,N,2006-08-23,2000-02-29,500000,0,CHGOFF,146850,500000,375000,79.63860369609856,133
3506784007,BUBBALOU'S BODACIOUS BAR-B-QUE,ORLANDO,FL,32803,FLORIDA 1ST CAP. FINAN CORPORA,FL,0,2000-01-03,2000,240,50,2,50,0,1,2,N,N,NA,2001-01-17,528000,0,P I F,0,528000,528000,NA,134
3509064009,FERNLEY RV PARK,RENO,NV,89502,NEVADA STATE BANK,UT,721211,2000-01-03,2000,300,4,1,2,4,1,1,0,N,NA,2000-01-31,543000,0,P I F,0,543000,407250,NA,135
3507964004,DANNY FERGUSON,MESQUITE,TX,75181,BANK OF THE WEST,TX,811121,2000-01-03,2000,189,7,1,3,0,1,1,0,N,NA,2000-05-31,575000,0,P I F,0,575000,431250,NA,136
3508014003,THE TOWN AND COUNTRY MOTEL,DENVER,CO,80216,PREMIER BANK,CO,721110,2000-01-03,2000,300,1,1,1,0,1,1,0,N,NA,2000-01-31,600000,0,P I F,0,600000,450000,NA,137
3509234001,ERISS.COM,POWAY,CA,92064,CDC SMALL BUS. FINAN CORP,CA,0,2000-01-03,2000,240,30,1,10,30,1,1,N,N,NA,2001-02-14,680000,0,P I F,0,680000,680000,NA,138
3507974007,FAMILY HARDWARE INC,MARBLE FALLS,TX,78654,JPMORGAN CHASE BANK NATL ASSOC,IL,444130,2000-01-03,2000,87,28,1,0,28,1,1,0,N,NA,2000-01-31,681600,0,P I F,0,681600,511200,NA,139
3507944009,WEBB'S LIQUOR,IMPERIAL CREST,CA,90011,COMERICA BANK,TX,445310,2000-01-03,2000,192,2,1,2,4,1,1,0,N,NA,2000-02-29,688300,0,P I F,0,688300,516225,NA,140
3509254007,N E P RESTAURANT CORP,JERICHO,NY,11753,BANK OF AMERICA NATL ASSOC,RI,0,2000-01-03,2000,246,20,1,20,0,1,1,0,N,NA,2000-02-29,718000,0,P I F,0,718000,538500,NA,141
3508234010,MAJESTIC CAR WASH,LOS ANGELES,CA,90048,U.S. BANK NATIONAL ASSOCIATION,OH,811192,2000-01-03,2000,276,23,1,0,23,1,1,0,N,NA,2000-07-31,893000,0,P I F,0,893000,669750,NA,142
3507724002,MECCA GYM & SPA LTD,AUSTIN,TX,78703,COMPASS BANK,AL,713940,2000-01-03,2000,126,50,2,50,0,1,1,0,N,NA,2000-02-29,900000,0,P I F,0,900000,675000,NA,143
3506764001,WIDEFIELD DENTA GROUP LLC,COLORADO SPRINGS,CO,80911,PIKES PEAK REGIONAL DEVEL CORP,CO,621210,2000-01-03,2000,240,17,1,19,17,1,1,N,N,NA,2001-06-13,945000,0,P I F,0,945000,945000,NA,144
3506944007,CHEMTRACE,FREMONT,CA,94538,MORTGAGE CAP. DEVEL CORP,CA,0,2000-01-03,2000,240,44,2,10,34,1,1,N,N,NA,2000-05-17,1000000,0,P I F,0,1000000,1000000,NA,145
3508714001,ANTELOPE VALLEY INN,LANCASTER,CA,93534,COMERICA BANK,TX,721110,2000-01-03,2000,168,85,1,15,100,1,1,0,N,NA,2000-02-29,1000000,0,P I F,0,1000000,750000,NA,146
3507154008,LOCKWOOD MANUFACTURING COMPANY,LIVONIA,MI,48150,UPS CAPITAL BUSINESS CREDIT,CT,337125,2000-01-03,2000,264,45,1,0,0,1,1,N,N,NA,2000-01-31,1100000,0,P I F,0,1100000,749980,NA,147
3508904010,SUNSET INN,GARDENA,CA,90247,HANMI BANK,CA,0,2000-01-03,2000,300,7,1,0,7,1,1,0,N,NA,2000-01-31,1300000,0,P I F,0,1300000,749970,NA,148
3508194000,KINGS TWO DENTAL SUPPLY,CITY OF INDUSTRY,CA,91748,CATHAY BANK,CA,421450,2000-01-03,2000,300,15,1,0,0,1,1,N,N,NA,2000-02-29,1770000,0,P I F,0,1770000,743400,NA,149
